SAKHACUBE-CHOLBON (RS18S)
1 67290U 25313AU  26196.17577719  .00004990  00000-0  20055-3 0  9993
2 67290  97.3928 270.8682 0007764 250.8585 109.1813 15.25359876 30247
LUCA-1 (RS90S)
1 67287U 25313AR  26196.13997762  .00004956  00000-0  20145-3 0  9991
2 67287  97.3928 270.7654 0008025 252.5845 107.4516 15.24981679 30231
QMR-KWT-2 (RS95S)
1 67291U 25313AV  26196.20184553  .00007296  00000-0  27807-3 0  9992
2 67291  97.3924 271.1320 0007510 246.7256 113.3193 15.26976346 30263
LOBACHEVSKY (RS83S)
1 67284U 25313AN  26196.15224385  .00002766  00000-0  12006-3 0  9998
2 67284  97.3916 270.4052 0008989 258.4891 101.5337 15.23137367 30219
NASBSAT-1
1 67289U 25313AT  26196.15650933  .00007442  00000-0  28642-3 0  9994
2 67289  97.3928 271.0458 0007839 249.4868 110.5530 15.26641578 30257
NASBSAT-2
1 67285U 25313AP  26196.20688190  .00003641  00000-0  15304-3 0  9990
2 67285  97.3913 270.6220 0008670 258.1993 101.8273 15.24024397 30236
HORS-5
1 67283U 25313AM  26196.45160421  .00003390  00000-0  14177-3 0  9995
2 67283  97.3930 270.9555 0008713 254.9747 105.0526 15.24247972 30273
AIST-2T 2
1 67253U 25313F   26196.19788903  .00015815  00000-0  19144-3 0  9998
2 67253  97.0793 273.7729 0006119 146.5924 213.5721 15.60732827 30998
AIST-2T 1
1 67254U 25313G   26196.16583983  .00016772  00000-0  20316-3 0  9993
2 67254  97.0835 273.6655 0005323 118.7728 241.4066 15.60709556 30975
AIST-ST (RS86S)
1 67267U 25313V   26196.24413090  .00005521  00000-0  22709-3 0  9995
2 67267  97.3934 270.6420 0011860 268.2534  91.7345 15.24500313 30233
KOWSAR 1.5
1 67264U 25313S   26196.50885892  .00003228  00000-0  14160-3 0  9998
2 67264  97.4016 270.8046 0013110 268.9709  91.0025 15.22618499 30252
PAYA
1 67255U 25313H   26196.12909386  .00001592  00000-0  10450-3 0  9991
2 67255  97.2851 262.5700 0067153 237.3820 122.0915 15.07212437 29865
GRIFON-1
1 67281U 25313AK  26196.45836226  .00002618  00000-0  11497-3 0  9990
2 67281  97.3874 270.5097 0010267 258.6754 101.3329 15.22778253 30258
GRIFON-2
1 67272U 25313AA  26196.16449375  .00005728  00000-0  23591-3 0  9996
2 67272  97.3933 270.5906 0012070 264.0704  95.9158 15.24435789 30224
GRIFON-3
1 67280U 25313AJ  26196.20788697  .00002619  00000-0  11529-3 0  9997
2 67280  97.3990 270.5300 0011506 261.2417  98.7517 15.22679296 30217
GRIFON-4
1 67261U 25313P   26196.19436500  .00008936  00000-0  33685-3 0  9992
2 67261  97.3963 271.0976 0012011 255.7107 104.2798 15.27234827 30257
MARAFON
1 67250U 25313C   26196.19142410  .00004163  00000-0  36398-3 0  9996
2 67250  97.6155 265.8551 0148486 243.5569 115.0350 14.89151890 29521
MORSAT (RS96S)
1 67262U 25313Q   26196.44359312  .00005471  00000-0  22429-3 0  9991
2 67262  97.3933 270.8266 0012738 259.6559 100.3243 15.24606823 30263
MARAFON-EXPERIMENTAL
1 67251U 25313D   26196.15402911  .00000954  00000-0  86886-4 0  9990
2 67251  97.5676 265.2931 0147255 233.8321 124.9201 14.89709827 29563
GXIBA-1
1 67684U 98067YA  26196.22286988  .00359367  59855-4  10917-2 0  9999
2 67684  51.6161 142.1416 0002796   5.5778 354.5259 15.91522223 24807
CORAL
1 67685U 98067YB  26196.29131019  .00044792  00000-0  45760-3 0  9993
2 67685  51.6254 151.7183 0008811 326.4244  33.6192 15.64540711 24684
KNACKSAT-2
1 67683U 98067XZ  26196.25870215  .00034050  00000-0  38021-3 0  9993
2 67683  51.6274 153.0107 0007992 328.5700  31.4815 15.62408935 24669
RASSVET-3 1
1 68360U 26061A   26196.47484018  .00001467  00000-0  70617-4 0  9991
2 68360  82.2915 343.1644 0000530 153.0973 207.0287 15.18036851 17869
RASSVET-3 2
1 68361U 26061B   26196.54452568  .00004889  00000-0  13203-3 0  9993
2 68361  82.2933 341.8421 0009078 355.0359   5.0793 15.37458452 17950
RASSVET-3 3
1 68362U 26061C   26196.46184245  .00001171  00000-0  56065-4 0  9994
2 68362  82.2962 345.2862 0003293 128.4868 231.6661 15.18038294 17734
RASSVET-3 5
1 68364U 26061E   26196.60015396  .00001250  00000-0  59979-4 0  9997
2 68364  82.2969 345.9791 0001122 152.9734 207.1558 15.18028644 17702
RASSVET-3 6
1 68365U 26061F   26196.46402312  .00001187  00000-0  56828-4 0  9999
2 68365  82.2948 345.7697 0002694 111.7910 248.3610 15.18032303 17700
RASSVET-3 7
1 68366U 26061G   26196.46615324  .00001197  00000-0  57349-4 0  9999
2 68366  82.2945 345.1224 0003056  82.5862 277.5718 15.18019713 17749
RASSVET-3 8
1 68367U 26061H   26196.35605039  .00003258  00000-0  12714-3 0  9996
2 68367  82.2935 342.7059 0006707 105.6660 254.5318 15.25552306 17881
RASSVET-3 9
1 68368U 26061J   26196.47266608  .00001476  00000-0  71069-4 0  9994
2 68368  82.2932 343.3498 0002683 196.9685 163.1459 15.18038554 17856
RASSVET-3 10
1 68369U 26061K   26196.24353648  .00035461  00000-0  28787-3 0  9990
2 68369  82.2891 339.7396 0002287  30.1698 329.9695 15.70550403 18057
RASSVET-3 11
1 68370U 26061L   26196.40787592  .00027390  00000-0  25092-3 0  9997
2 68370  82.2932 340.8333 0007894  70.3933 289.8178 15.67572870 18009
RASSVET-3 12
1 68371U 26061M   26196.66823079  .00001316  00000-0  63202-4 0  9993
2 68371  82.2953 345.5687 0000441  48.8954 311.2317 15.18029331 17730
RASSVET-3 13
1 68372U 26061N   26196.41791219  .00001750  00000-0  71669-4 0  9995
2 68372  82.2966 345.4168 0004455  11.6842 348.4497 15.23656447 17721
RASSVET-3 14
1 68373U 26061P   26196.12983147  .00024052  00000-0  18446-3 0  9990
2 68373  82.2938 341.2538 0008044  25.4459 334.7197 15.71881437 17953
RASSVET-3 15
1 68374U 26061Q   26196.50456761  .00001994  00000-0  80920-4 0  9997
2 68374  82.2960 342.2933 0005008 102.6043 257.5754 15.24029615 17921
RASSVET-3 16
1 68375U 26061R   26196.41092495  .00001652  00000-0  79743-4 0  9990
2 68375  82.2941 343.4274 0000638 163.8390 196.2864 15.18034708 17844
HADES-SA (SPINNYONE)
1 68446U 26067AG  26196.34026995  .00009793  00000-0  45759-3 0  9992
2 68446  97.4415 154.2355 0005992   4.3025 355.8261 15.19984883 16209
OBZP1
1 90000U 00001A   26082.73220162  .00000000  00000-0  52294-3 0    10
2 90000  82.2945 108.6614 0025130  78.3270   5.7283 15.88315102    15
